NORAD_CAT_ID,OBJECT_NAME,OBJECT_TYPE,EPOCH,MEAN_MOTION,ECCENTRICITY,INCLINATION,RA_OF_ASC_NODE,ARG_OF_PERICENTER,MEAN_ANOMALY,BSTAR,MEAN_MOTION_DOT,MEAN_MOTION_DDOT,TLE_LINE0,TLE_LINE1,TLE_LINE2,SEMIMAJOR_AXIS,PERIOD,APOGEE,PERIGEE,DECAYED
53708.0,STARLINK-4694,PAYLOAD,2024-03-04 22:28:37,15.08860998,0.0001245,53.2154,287.4222,92.9274,267.1861,0.0009893,0.00015501,0.0,0 STARLINK-4694,1 53708U 22107J   24064.93654753  .00015501  00000-0  98930-3 0  9997,2 53708  53.2154 287.4222 0001245  92.9274 267.1861 15.08860998 84149,6917.816,95.436,540.542,538.82,0.0
53708.0,STARLINK-4694,PAYLOAD,2024-03-05 14:22:29,15.08827809,0.0001315,53.2145,284.4499,88.1026,272.0117,0.00032096,4.822e-05,0.0,0 STARLINK-4694,1 53708U 22107J   24065.59895377  .00004822  00000-0  32096-3 0  9994,2 53708  53.2145 284.4499 0001315  88.1026 272.0117 15.08827809 84246,6917.918,95.438,540.692,538.873,0.0
53708.0,STARLINK-4694,PAYLOAD,2024-03-05 20:44:02,15.08827144,0.0001322,53.2152,283.2591,78.0647,282.0494,0.00099815,0.00015628,0.0,0 STARLINK-4694,1 53708U 22107J   24065.86391730  .00015628  00000-0  99815-3 0  9996,2 53708  53.2152 283.2591 0001322  78.0647 282.0494 15.08827144 83531,6917.92,95.438,540.699,538.87,0.0
53708.0,STARLINK-4694,PAYLOAD,2024-03-06 14:13:17,15.08844953,0.0001424,53.2148,279.9884,72.4009,287.7139,0.0011352,0.00017827,0.0,0 STARLINK-4694,1 53708U 22107J   24066.59256107  .00017827  00000-0  11352-2 0  9997,2 53708  53.2148 279.9884 0001424  72.4009 287.7139 15.08844953 84396,6917.865,95.437,540.715,538.745,0.0
53708.0,STARLINK-4694,PAYLOAD,2024-03-07 02:56:21,15.0885913,0.0001435,53.2149,277.6091,72.2163,287.8985,0.00094772,0.00014835,0.0,0 STARLINK-4694,1 53708U 22107J   24067.12247639  .00014835  00000-0  94772-3 0  9991,2 53708  53.2149 277.6091 0001435  72.2163 287.8985 15.08859130 83722,6917.822,95.436,540.68,538.694,0.0
53708.0,STARLINK-4694,PAYLOAD,2024-03-07 04:31:45,15.08838822,0.0001599,53.2155,277.3106,70.2887,289.8278,0.00014799,2.068e-05,0.0,0 STARLINK-4694,1 53708U 22107J   24067.18872031  .00002068  00000-0  14799-3 0  9993,2 53708  53.2155 277.3106 0001599  70.2887 289.8278 15.08838822 84481,6917.884,95.438,540.855,538.643,0.0
53708.0,STARLINK-4694,PAYLOAD,2024-03-08 02:47:09,15.08854665,0.0001396,53.2151,273.1482,78.6842,281.4307,0.00075817,0.00011804,0.0,0 STARLINK-4694,1 53708U 22107J   24068.11607687  .00011804  00000-0  75817-3 0  9996,2 53708  53.2151 273.1482 0001396  78.6842 281.4307 15.08854665 83872,6917.836,95.437,540.666,538.735,0.0
53708.0,STARLINK-4694,PAYLOAD,2024-03-08 20:16:23,15.08845807,0.0001296,53.2153,269.8788,85.4907,274.6233,0.00066406,0.00010298,0.0,0 STARLINK-4694,1 53708U 22107J   24068.84471978  .00010298  00000-0  66406-3 0  9998,2 53708  53.2153 269.8788 0001296  85.4907 274.6233 15.08845807 83984,6917.863,95.437,540.624,538.831,0.0
53708.0,STARLINK-4694,PAYLOAD,2024-03-09 05:48:42,15.08842961,0.0001455,53.2157,268.091,75.8116,284.3038,0.0003807,5.777e-05,0.0,0 STARLINK-4694,1 53708U 22107J   24069.24216014  .00005777  00000-0  38070-3 0  9993,2 53708  53.2157 268.0910 0001455  75.8116 284.3038 15.08842961 84045,6917.871,95.437,540.743,538.73,0.0
53708.0,STARLINK-4694,PAYLOAD,2024-03-09 20:07:10,15.08843955,0.0001455,53.2154,265.415,78.0156,282.1,0.00027457,4.085e-05,0.0,0 STARLINK-4694,1 53708U 22107J   24069.83831972  .00004085  00000-0  27457-3 0  9992,2 53708  53.2154 265.4150 0001455  78.0156 282.1000 15.08843955 84889,6917.868,95.437,540.74,538.727,0.0
53708.0,STARLINK-4694,PAYLOAD,2024-03-10 19:57:58,15.08835455,7.87e-05,53.2119,260.956,80.8552,279.2529,6.9468e-07,-2.77e-06,0.0,0 STARLINK-4694,1 53708U 22107J   24070.83192393 -.00000277  00000-0  69468-6 0  9992,2 53708  53.2119 260.9560 0000787  80.8552 279.2529 15.08835455 84286,6917.894,95.438,540.304,539.215,0.0
53708.0,STARLINK-4694,PAYLOAD,2024-03-10 23:08:44,15.08840111,0.0001316,53.2136,260.3604,100.939,259.175,0.00017763,2.54e-05,0.0,0 STARLINK-4694,1 53708U 22107J   24070.96440479  .00002540  00000-0  17763-3 0  9999,2 53708  53.2136 260.3604 0001316 100.9390 259.1750 15.08840111 85055,6917.88,95.438,540.655,538.835,0.0
53708.0,STARLINK-4694,PAYLOAD,2024-03-12 11:42:36,15.08842731,0.0001419,53.2146,253.519,74.6504,285.4645,0.00020132,2.918e-05,0.0,0 STARLINK-4694,1 53708U 22107J   24072.48792713  .00002918  00000-0  20132-3 0  9992,2 53708  53.2146 253.5190 0001419  74.6504 285.4645 15.08842731 84535,6917.872,95.437,540.719,538.755,0.0
53708.0,STARLINK-4694,PAYLOAD,2024-03-12 21:14:55,15.08849526,0.0001311,53.2143,251.7357,103.3598,256.754,0.00025968,3.848e-05,0.0,0 STARLINK-4694,1 53708U 22107J   24072.88536136  .00003848  00000-0  25968-3 0  9996,2 53708  53.2143 251.7357 0001311 103.3598 256.7540 15.08849526 85345,6917.851,95.437,540.623,538.809,0.0
53708.0,STARLINK-4694,PAYLOAD,2024-03-13 05:11:51,15.08841114,0.0001932,53.2132,250.2514,78.8488,281.2722,7.8586e-05,9.63e-06,0.0,0 STARLINK-4694,1 53708U 22107J   24073.21656627  .00000963  00000-0  78586-4 0  9992,2 53708  53.2132 250.2514 0001932  78.8488 281.2722 15.08841114 85390,6917.877,95.437,541.079,538.405,0.0
53708.0,STARLINK-4694,PAYLOAD,2024-03-13 21:05:42,15.08844265,0.0001625,53.2083,247.2746,89.276,270.8418,0.00023039,3.381e-05,0.0,0 STARLINK-4694,1 53708U 22107J   24073.87896270  .00003381  00000-0  23039-3 0  9993,2 53708  53.2083 247.2746 0001625  89.2760 270.8418 15.08844265 84740,6917.867,95.437,540.857,538.608,0.0
53708.0,STARLINK-4694,PAYLOAD,2024-03-14 05:02:38,15.08838949,0.0002319,53.2105,245.7885,91.1086,269.0172,0.00013818,1.911e-05,0.0,0 STARLINK-4694,1 53708U 22107J   24074.21016764  .00001911  00000-0  13818-3 0  9995,2 53708  53.2105 245.7885 0002319  91.1086 269.0172 15.08838949 84790,6917.884,95.438,541.353,538.144,0.0
53708.0,STARLINK-4694,PAYLOAD,2024-03-14 17:45:43,15.08842673,0.0001549,53.2121,243.4096,98.0832,262.0336,0.0001433,1.994e-05,0.0,0 STARLINK-4694,1 53708U 22107J   24074.74008404  .00001994  00000-0  14330-3 0  9996,2 53708  53.2121 243.4096 0001549  98.0832 262.0336 15.08842673 85623,6917.872,95.437,540.809,538.666,0.0
53708.0,STARLINK-4694,PAYLOAD,2024-03-15 11:14:57,15.0883963,0.0001328,53.2146,240.1385,92.4297,267.6847,7.6968e-05,9.37e-06,0.0,0 STARLINK-4694,1 53708U 22107J   24075.46872499  .00000937  00000-0  76968-4 0  9991,2 53708  53.2146 240.1385 0001328  92.4297 267.6847 15.08839630 84988,6917.882,95.438,540.665,538.828,0.0
53708.0,STARLINK-4694,PAYLOAD,2024-03-16 14:16:31,15.0884138,0.0001308,53.2152,235.0833,94.3163,265.7979,8.9845e-05,1.142e-05,0.0,0 STARLINK-4694,1 53708U 22107J   24076.59480577  .00001142  00000-0  89845-4 0  9995,2 53708  53.2152 235.0833 0001308  94.3163 265.7979 15.08841380 85900,6917.876,95.437,540.646,538.836,0.0
53708.0,STARLINK-4694,PAYLOAD,2024-03-16 20:38:03,15.08841723,0.0001379,53.2158,233.8913,78.1706,281.9441,0.00016331,2.312e-05,0.0,0 STARLINK-4694,1 53708U 22107J   24076.85976613  .00002312  00000-0  16331-3 0  9994,2 53708  53.2158 233.8913 0001379  78.1706 281.9441 15.08841723 85198,6917.875,95.437,540.694,538.786,0.0
53708.0,STARLINK-4694,PAYLOAD,2024-03-17 09:21:09,15.08831971,0.0001358,53.2154,231.5089,101.7913,258.3231,1.5473e-05,-4.2e-07,0.0,0 STARLINK-4694,1 53708U 22107J   24077.38969174 -.00000042  00000-0  15473-4 0  9993,2 53708  53.2154 231.5089 0001358 101.7913 258.3231 15.08831971 85271,6917.905,95.438,540.709,538.83,0.0
53708.0,STARLINK-4694,PAYLOAD,2024-03-17 14:07:18,15.08839007,0.0001507,53.2144,230.6221,110.3363,249.7791,8.4392e-05,1.055e-05,0.0,0 STARLINK-4694,1 53708U 22107J   24077.58840697  .00001055  00000-0  84392-4 0  9993,2 53708  53.2144 230.6221 0001507 110.3363 249.7791 15.08839007 86059,6917.883,95.438,540.791,538.706,0.0
53708.0,STARLINK-4694,PAYLOAD,2024-03-17 15:42:41,15.0884621,0.0001563,53.2158,230.3244,105.6769,254.4395,0.00018597,2.673e-05,0.0,0 STARLINK-4694,1 53708U 22107J   24077.65464425  .00002673  00000-0  18597-3 0  9992,2 53708  53.2158 230.3244 0001563 105.6769 254.4395 15.08846210 85310,6917.861,95.437,540.808,538.645,0.0
53708.0,STARLINK-4694,PAYLOAD,2024-03-18 18:44:14,15.08840968,0.0001406,53.2152,225.2724,91.5688,268.5465,3.5222e-05,2.73e-06,0.0,0 STARLINK-4694,1 53708U 22107J   24078.78072775  .00000273  00000-0  35222-4 0  9999,2 53708  53.2152 225.2724 0001406  91.5688 268.5465 15.08840968 85485,6917.877,95.437,540.715,538.77,0.0
53708.0,STARLINK-4694,PAYLOAD,2024-03-19 16:59:37,15.08859708,0.0001434,53.2159,221.1053,101.9318,258.1835,0.00028127,4.194e-05,0.0,0 STARLINK-4694,1 53708U 22107J   24079.70807730  .00004194  00000-0  28127-3 0  9990,2 53708  53.2159 221.1053 0001434 101.9318 258.1835 15.08859708 85623,6917.82,95.436,540.677,538.693,0.0
53708.0,STARLINK-4694,PAYLOAD,2024-03-20 08:53:30,15.08835202,0.0001634,53.2158,218.1368,78.1049,282.0126,4.9084e-05,4.93e-06,0.0,0 STARLINK-4694,1 53708U 22107J   24080.37049454  .00000493  00000-0  49084-4 0  9990,2 53708  53.2158 218.1368 0001634  78.1049 282.0126 15.08835202 85728,6917.895,95.438,540.89,538.63,0.0
53708.0,STARLINK-4694,PAYLOAD,2024-03-20 13:39:40,15.08834087,0.0001563,53.2165,217.2427,80.8615,279.2554,3.0294e-05,1.94e-06,0.0,0 STARLINK-4694,1 53708U 22107J   24080.56921666  .00000194  00000-0  30294-4 0  9996,2 53708  53.2165 217.2427 0001563  80.8615 279.2554 15.08834087 86502,6917.898,95.438,540.845,538.682,0.0
53708.0,STARLINK-4694,PAYLOAD,2024-03-20 16:50:26,15.08833404,0.0001443,53.2153,216.6472,85.3883,274.7274,3.5944e-05,2.84e-06,0.0,0 STARLINK-4694,1 53708U 22107J   24080.70169557  .00000284  00000-0  35944-4 0  9992,2 53708  53.2153 216.6472 0001443  85.3883 274.7274 15.08833404 86529,6917.901,95.438,540.764,538.767,0.0
53708.0,STARLINK-4694,PAYLOAD,2024-03-21 13:30:27,15.08844545,0.0001661,53.2156,212.7822,60.4848,299.631,0.00019868,2.876e-05,0.0,0 STARLINK-4694,1 53708U 22107J   24081.56281673  .00002876  00000-0  19868-3 0  9996,2 53708  53.2156 212.7822 0001661  60.4848 299.6310 15.08844545 85901,6917.866,95.437,540.881,538.582,0.0
